NORAD_CAT_ID,OBJECT_NAME,OBJECT_TYPE,EPOCH,MEAN_MOTION,ECCENTRICITY,INCLINATION,RA_OF_ASC_NODE,ARG_OF_PERICENTER,MEAN_ANOMALY,BSTAR,MEAN_MOTION_DOT,MEAN_MOTION_DDOT,TLE_LINE0,TLE_LINE1,TLE_LINE2,SEMIMAJOR_AXIS,PERIOD,APOGEE,PERIGEE,DECAYED
51786.0,STARLINK-3638,PAYLOAD,2022-10-12 19:12:57,15.08834235,0.0002147,53.2153,173.1515,49.5137,310.6042,6.981399999999999e-05,8.23e-06,0.0,0 STARLINK-3638,1 51786U 22017U   22285.80066696  .00000823  00000-0  69814-4 0  9994,2 51786  53.2153 173.1515 0002147  49.5137 310.6042 15.08834235 34499,6917.898,95.438,541.248,538.278,0.0
51786.0,STARLINK-3638,PAYLOAD,2022-10-12 23:59:07,15.08835128,0.0002136,53.216,172.2585,47.9103,312.2071,7.484399999999999e-05,9.03e-06,0.0,0 STARLINK-3638,1 51786U 22017U   22285.99938747  .00000903  00000-0  74844-4 0  9997,2 51786  53.2160 172.2585 0002136  47.9103 312.2071 15.08835128 36211,6917.895,95.438,541.238,538.283,0.0
51786.0,STARLINK-3638,PAYLOAD,2022-10-13 12:42:11,15.08848309,0.000187,53.2151,169.8796,59.7451,300.3726,0.00032849,4.945e-05,0.0,0 STARLINK-3638,1 51786U 22017U   22286.52930157  .00004945  00000-0  32849-3 0  9992,2 51786  53.2151 169.8796 0001870  59.7451 300.3726 15.08848309 34609,6917.855,95.437,541.014,538.4259999999998,0.0
51786.0,STARLINK-3638,PAYLOAD,2022-10-13 15:52:58,15.08842084,0.0001736,53.2148,169.2843,61.1254,298.9912,0.00019859,2.874e-05,0.0,0 STARLINK-3638,1 51786U 22017U   22286.66178366  .00002874  00000-0  19859-3 0  9998,2 51786  53.2148 169.2843 0001736  61.1254 298.9912 15.08842084 36314,6917.874,95.437,540.94,538.538,0.0
51786.0,STARLINK-3638,PAYLOAD,2022-10-13 19:03:44,15.08842478,0.0001733999999999,53.2155,168.6901,60.0637,300.0527,0.00019314,2.787e-05,0.0,0 STARLINK-3638,1 51786U 22017U   22286.79426335  .00002787  00000-0  19314-3 0  9993,2 51786  53.2155 168.6901 0001734  60.0637 300.0527 15.08842478 34649,6917.873000000001,95.437,540.937,538.538,0.0
51786.0,STARLINK-3638,PAYLOAD,2022-10-14 12:32:58,15.0885199,0.0001926,53.2154,165.4202,54.4641,305.6531,0.00024653,3.639e-05,0.0,0 STARLINK-3638,1 51786U 22017U   22287.52289753  .00003639  00000-0  24653-3 0  9995,2 51786  53.2154 165.4202 0001926  54.4641 305.6531 15.08851990 34759,6917.844,95.437,541.0409999999998,538.376,0.0
51786.0,STARLINK-3638,PAYLOAD,2022-10-14 18:54:30,15.08859306,0.0001868,53.2144,164.2302,56.0294,304.0875,0.0003126,4.693e-05,0.0,0 STARLINK-3638,1 51786U 22017U   22287.78785258  .00004693  00000-0  31260-3 0  9997,2 51786  53.2144 164.2302 0001868  56.0294 304.0875 15.08859306 34790,6917.821,95.436,540.979,538.394,0.0
51786.0,STARLINK-3638,PAYLOAD,2022-10-15 12:23:44,15.08862269,0.0001802,53.2145,160.9594,49.3778,310.7371,0.00024784,3.661e-05,0.0,0 STARLINK-3638,1 51786U 22017U   22288.51648375  .00003661  00000-0  24784-3 0  9994,2 51786  53.2145 160.9594 0001802  49.3778 310.7371 15.08862269 34907,6917.812,95.436,540.924,538.431,0.0
51786.0,STARLINK-3638,PAYLOAD,2022-10-15 18:45:16,15.08858396,0.0001809,53.2148,159.7703,46.97,313.1443,0.00016334,2.314e-05,0.0,0 STARLINK-3638,1 51786U 22017U   22288.78144242  .00002314  00000-0  16334-3 0  9993,2 51786  53.2148 159.7703 0001809  46.9700 313.1443 15.08858396 34940,6917.824000000001,95.436,540.941,538.438,0.0
51786.0,STARLINK-3638,PAYLOAD,2022-10-16 01:06:49,15.08848278,0.000176,53.2144,158.5799,52.9984,307.1169,-3.4784e-05,-8.42e-06,0.0,0 STARLINK-3638,1 51786U 22017U   22289.04640372 -.00000842  00000-0 -34784-4 0  9994,2 51786  53.2144 158.5799 0001760  52.9984 307.1169 15.08848278 36673,6917.855,95.437,540.938,538.503,0.0
51786.0,STARLINK-3638,PAYLOAD,2022-10-16 12:14:31,15.08829686,0.0001909999999999,53.2127,156.4957,63.3814,296.7374,-0.0003258,-5.468e-05,0.0,0 STARLINK-3638,1 51786U 22017U   22289.51009179 -.00005468  00000-0 -32580-3 0  9990,2 51786  53.2127 156.4957 0001910  63.3814 296.7374 15.08829686 36743,6917.9119999999975,95.438,541.0980000000002,538.456,0.0
51786.0,STARLINK-3638,PAYLOAD,2022-10-16 20:11:28,15.08825902,0.0001727,53.2158,155.012,54.4364,305.6789,-0.00016592,-2.927e-05,0.0,0 STARLINK-3638,1 51786U 22017U   22289.84130724 -.00002927  00000-0 -16592-3 0  9999,2 51786  53.2158 155.0120 0001727  54.4364 305.6789 15.08825902 35107,6917.9230000000025,95.438,540.9830000000002,538.594,0.0
51786.0,STARLINK-3638,PAYLOAD,2022-10-16 21:46:50,15.08844697,0.0001716,53.2156,154.7137,53.8457,306.2694,-1.7766e-05,-5.71e-06,0.0,0 STARLINK-3638,1 51786U 22017U   22289.90753135 -.00000571  00000-0 -17766-4 0  9991,2 51786  53.2156 154.7137 0001716  53.8457 306.2694 15.08844697 36805,6917.866,95.437,540.918,538.544,0.0
51786.0,STARLINK-3638,PAYLOAD,2022-10-17 12:05:18,15.08847238,0.0001545,53.2162,152.0375,50.6684,309.4444,6.6454e-06,-1.82e-06,0.0,0 STARLINK-3638,1 51786U 22017U   22290.50368606 -.00000182  00000-0  66454-5 0  9990,2 51786  53.2162 152.0375 0001545  50.6684 309.4444 15.08847238 35209,6917.858,95.437,540.7919999999998,538.654,0.0
51786.0,STARLINK-3638,PAYLOAD,2022-10-17 18:26:51,15.08842623,0.0001561,53.2161,150.8478,53.5796,306.534,2.8239e-05,1.61e-06,0.0,0 STARLINK-3638,1 51786U 22017U   22290.76864782  .00000161  00000-0  28239-4 0  9998,2 51786  53.2161 150.8478 0001561  53.5796 306.5340 15.08842623 35242,6917.871999999999,95.437,540.817,538.6569999999998,0.0
51786.0,STARLINK-3638,PAYLOAD,2022-10-18 00:48:24,15.08835586,0.0001636999999999,53.2162,149.6591,51.6179,308.496,-5.099300000000001e-05,-1.099e-05,0.0,0 STARLINK-3638,1 51786U 22017U   22291.03361513 -.00001099  00000-0 -50993-4 0  9998,2 51786  53.2162 149.6591 0001637  51.6179 308.4960 15.08835586 36973,6917.894,95.438,540.891,538.626,0.0
51786.0,STARLINK-3638,PAYLOAD,2022-10-18 10:20:43,15.08823896,0.0001655,53.2162,147.8748,58.1108,302.0045,9.8769e-05,1.284e-05,0.0,0 STARLINK-3638,1 51786U 22017U   22291.43106127  .00001284  00000-0  98769-4 0  9997,2 51786  53.2162 147.8748 0001655  58.1108 302.0045 15.08823896 37034,6917.93,95.439,540.94,538.65,0.0
51786.0,STARLINK-3638,PAYLOAD,2022-10-18 16:42:16,15.08820731,0.0001594,53.2162,146.6843,54.816,305.2981,0.00015555,2.187e-05,0.0,0 STARLINK-3638,1 51786U 22017U   22291.69602477  .00002187  00000-0  15555-3 0  9998,2 51786  53.2162 146.6843 0001594  54.8160 305.2981 15.08820731 35385,6917.939,95.439,540.9069999999998,538.702,0.0
51786.0,STARLINK-3638,PAYLOAD,2022-10-19 13:22:18,15.08825291,0.0001453,53.2162,142.8178,77.9219,282.1936,-2.9432e-05,-7.56e-06,0.0,0 STARLINK-3638,1 51786U 22017U   22292.55715299 -.00000756  00000-0 -29432-4 0  9993,2 51786  53.2162 142.8178 0001453  77.9219 282.1936 15.08825291 37201,6917.925,95.438,540.7959999999998,538.785,0.0
51786.0,STARLINK-3638,PAYLOAD,2022-10-19 16:33:04,15.08829483,0.0001792,53.2152,142.2234,62.8361,297.2814,5.9743e-06,-1.93e-06,0.0,0 STARLINK-3638,1 51786U 22017U   22292.68963151 -.00000193  00000-0  59743-5 0  9992,2 51786  53.2152 142.2234 0001792  62.8361 297.2814 15.08829483 35537,6917.913000000001,95.438,541.0169999999998,538.538,0.0
51786.0,STARLINK-3638,PAYLOAD,2022-10-20 08:26:55,15.08833661,0.0001773,53.2159,139.2511,55.2576,304.8583,0.00010716,1.417e-05,0.0,0 STARLINK-3638,1 51786U 22017U   22293.35203045  .00001417  00000-0  10716-3 0  9990,2 51786  53.2159 139.2511 0001773  55.2576 304.8583 15.08833661 35633,6917.9,95.438,540.991,538.538,0.0
51786.0,STARLINK-3638,PAYLOAD,2022-10-20 16:23:51,15.08837477,0.0002261,53.2148,137.7651,53.3059,306.814,8.2833e-05,1.03e-05,0.0,0 STARLINK-3638,1 51786U 22017U   22293.68323112  .00001030  00000-0  82833-4 0  9995,2 51786  53.2148 137.7651 0002261  53.3059 306.8140 15.08837477 35682,6917.888000000001,95.438,541.317,538.189,0.0
51786.0,STARLINK-3638,PAYLOAD,2022-10-20 22:45:23,15.08841439,0.0001512,53.2177,136.5748,36.9573,323.1523,0.00018958,2.731e-05,0.0,0 STARLINK-3638,1 51786U 22017U   22293.94818366  .00002731  00000-0  18958-3 0  9999,2 51786  53.2177 136.5748 0001512  36.9573 323.1523 15.08841439 37417,6917.876,95.437,540.7869999999998,538.695,0.0
51786.0,STARLINK-3638,PAYLOAD,2022-10-21 08:17:41,15.08845923,0.0001730999999999,53.2158,134.7901,57.2946,302.8213,0.00017427,2.487e-05,0.0,0 STARLINK-3638,1 51786U 22017U   22294.34562307  .00002487  00000-0  17427-3 0  9993,2 51786  53.2158 134.7901 0001731  57.2946 302.8213 15.08845923 35780,6917.861999999999,95.437,540.925,538.53,0.0
51786.0,STARLINK-3638,PAYLOAD,2022-10-21 19:25:24,15.08839407,0.0001675,53.2159,132.7083,57.5245,302.5909,9.9128e-05,1.29e-05,0.0,0 STARLINK-3638,1 51786U 22017U   22294.80930881  .00001290  00000-0  99128-4 0  9990,2 51786  53.2159 132.7083 0001675  57.5245 302.5909 15.08839407 37547,6917.882,95.438,540.906,538.5880000000002,0.0
51786.0,STARLINK-3638,PAYLOAD,2022-10-22 11:19:15,15.08846506,0.0001704,53.2158,129.7345,57.4245,302.6911,5.8847e-05,6.49e-06,0.0,0 STARLINK-3638,1 51786U 22017U   22295.47170501  .00000649  00000-0  58847-4 0  9999,2 51786  53.2158 129.7345 0001704  57.4245 302.6911 15.08846506 35950,6917.861,95.437,540.904,538.547,0.0
51786.0,STARLINK-3638,PAYLOAD,2022-10-22 19:16:10,15.08850771,0.0001729,53.2156,128.2473,58.3161,301.8,8.9525e-05,1.137e-05,0.0,0 STARLINK-3638,1 51786U 22017U   22295.80289984  .00001137  00000-0  89525-4 0  9992,2 51786  53.2156 128.2473 0001729  58.3161 301.8000 15.08850771 37690,6917.847,95.437,540.909,538.516,0.0
51786.0,STARLINK-3638,PAYLOAD,2022-10-23 07:59:15,15.08854105,0.000175,53.2155,125.8681,58.8591,301.2573,4.7886e-05,4.74e-06,0.0,0 STARLINK-3638,1 51786U 22017U   22296.33281485  .00000474  00000-0  47886-4 0  9996,2 51786  53.2155 125.8681 0001750  58.8591 301.2573 15.08854105 36085,6917.837,95.437,540.913,538.492,0.0
51786.0,STARLINK-3638,PAYLOAD,2022-10-23 19:06:57,15.0884581,0.0001737,53.2156,123.7864,59.7334,300.383,4.6116e-05,4.46e-06,0.0,0 STARLINK-3638,1 51786U 22017U   22296.79649796  .00000446  00000-0  46116-4 0  9993,2 51786  53.2156 123.7864 0001737  59.7334 300.3830 15.08845810 36153,6917.863,95.437,540.929,538.526,0.0
